SKYKRAFT-1A             
1 55054U 23001AX  26068.71064616  .00008177  00000+0  30069-3 0  9991
2 55054  97.3349 127.6290 0011277 121.5092 238.7251 15.28083228176529
STARLINK-31514          
1 59187U 24045K   26068.44935051 -.00001613  00000+0 -49068-4 0  9991
2 59187  43.0080  93.9914 0002745 302.9517  57.1071 15.27583166113120
